{"type": "FeatureCollection", "features": [ {"type": "Feature", "properties": {"norad_id": 34058, "name": "COSMOS 2251 DEB", "group": "cosmos-2251-debris", "lat": -48.29756443527136, "lon": -1.7908606389653405, "alt_km": 990.5590936780854, "timestamp": "2025-12-24T07:45:06.592403+00:00", "meta": {"OBJECT_NAME": "COSMOS 2251 DEB", "OBJECT_ID": "1993-036JV", "EPOCH": "2025-12-23T22:24:33.274080", "MEAN_MOTION": 13.56093263, "ECCENTRICITY": 0.03774403, "INCLINATION": 73.9316, "RA_OF_ASC_NODE": 159.9681, "ARG_OF_PERICENTER": 153.0768, "MEAN_ANOMALY": 333.9116, "EPHEMERIS_TYPE": 0, "CLASSIFICATION_TYPE": "U", "NORAD_CAT_ID": 34058, "ELEMENT_SET_NO": 999, "REV_AT_EPOCH": 83294, "BSTAR": 0.00072092574, "MEAN_MOTION_DOT": 7.8e-06, "MEAN_MOTION_DDOT": 0}, "tle": {"line1": "1 34058U 93036JV  25357.93371845  .00000780  00000+0  72093-3 0  9991", "line2": "2 34058  73.9316 159.9681 0377440 153.0768 333.9116 13.56093263832945"}}, "geometry": {"type": "Point", "coordinates": [-1.7908606389653405, -48.29756443527136]}}, {"type": "Feature", "properties": {"norad_id": 34059, "name": "COSMOS 2251 DEB", "group": "cosmos-2251-debris", "lat": 15.391293447718716, "lon": -20.095096231140005, "alt_km": 713.2488242345698, "timestamp": "2025-12-24T07:45:06.592413+00:00", "meta": {"OBJECT_NAME": "COSMOS 2251 DEB", "OBJECT_ID": "1993-036JW", "EPOCH": "2025-12-23T21:38:23.613216", "MEAN_MOTION": 14.53011342, "ECCENTRICITY": 0.00184234, "INCLINATION": 74.0372, "RA_OF_ASC_NODE": 165.2188, "ARG_OF_PERICENTER": 241.6006, "MEAN_ANOMALY": 239.4546, "EPHEMERIS_TYPE": 0, "CLASSIFICATION_TYPE": "U", "NORAD_CAT_ID": 34059, "ELEMENT_SET_NO": 999, "REV_AT_EPOCH": 88621, "BSTAR": 0.00085217324, "MEAN_MOTION_DOT": 3.498e-05, "MEAN_MOTION_DDOT": 0}, "tle": {"line1": "1 34059U 93036JW  25357.90166219  .00003498  00000+0  85217-3 0  9997", "line2": "2 34059  74.0372 165.2188 0018423 241.6006 239.4546 14.53011342886216"}}, "geometry": {"type": "Point", "coordinates": [-20.095096231140005, 15.391293447718716]}}, {"type": "Feature", "properties": {"norad_id": 34061, "name": "COSMOS 2251 DEB", "group": "cosmos-2251-debris", "lat": -13.74665042781799, "lon": -122.03557328012086, "alt_km": 748.4052388450546, "timestamp": "2025-12-24T07:45:06.592424+00:00", "meta": {"OBJECT_NAME": "COSMOS 2251 DEB", "OBJECT_ID": "1993-036JY", "EPOCH": "2025-12-23T04:12:26.443584", "MEAN_MOTION": 14.40377763, "ECCENTRICITY": 0.00208519, "INCLINATION": 74.0387, "RA_OF_ASC_NODE": 244.1, "ARG_OF_PERICENTER": 319.5068, "MEAN_ANOMALY": 197.413, "EPHEMERIS_TYPE": 0, "CLASSIFICATION_TYPE": "U", "NORAD_CAT_ID": 34061, "ELEMENT_SET_NO": 999, "REV_AT_EPOCH": 88330, "BSTAR": 0.00027185319, "MEAN_MOTION_DOT": 8.38e-06, "MEAN_MOTION_DDOT": 0}, "tle": {"line1": "1 34061U 93036JY  25357.17530606  .00000838  00000+0  27185-3 0  9999", "line2": "2 34061  74.0387 244.1000 0020851 319.5068 197.4130 14.40377763883303"}}, "geometry": {"type": "Point", "coordinates": [-122.03557328012086, -13.74665042781799]}}, {"type": "Feature", "properties": {"norad_id": 34062, "name": "COSMOS 2251 DEB", "group": "cosmos-2251-debris", "lat": -73.94244424411367, "lon": 30.97562546364878, "alt_km": 629.5750207974452, "timestamp": "2025-12-24T07:45:06.592434+00:00", "meta": {"OBJECT_NAME": "COSMOS 2251 DEB", "OBJECT_ID": "1993-036JZ", "EPOCH": "2025-12-23T11:24:12.352608", "MEAN_MOTION": 14.79073968, "ECCENTRICITY": 0.00730911, "INCLINATION": 74.0287, "RA_OF_ASC_NODE": 116.9159, "ARG_OF_PERICENTER": 193.7638, "MEAN_ANOMALY": 244.3125, "EPHEMERIS_TYPE": 0, "CLASSIFICATION_TYPE": "U", "NORAD_CAT_ID": 34062, "ELEMENT_SET_NO": 999, "REV_AT_EPOCH": 88754, "BSTAR": 0.0027771553, "MEAN_MOTION_DOT": 0.00021535, "MEAN_MOTION_DDOT": 0}, "tle": {"line1": "1 34062U 93036JZ  25357.47514297  .00021535  00000+0  27772-2 0  9999", "line2": "2 34062  74.0287 116.9159 0073091 193.7638 244.3125 14.79073968887541"}}, "geometry": {"type": "Point", "coordinates": [30.97562546364878, -73.94244424411367]}}, {"type": "Feature", "properties": {"norad_id": 34064, "name": "COSMOS 2251 DEB", "group": "cosmos-2251-debris", "lat": 40.31683168294333, "lon": -96.55833514479112, "alt_km": 746.6085263441528, "timestamp": "2025-12-24T07:45:06.592444+00:00", "meta": {"OBJECT_NAME": "COSMOS 2251 DEB", "OBJECT_ID": "1993-036KB", "EPOCH": "2025-12-23T03:57:35.154144", "MEAN_MOTION": 14.42371122, "ECCENTRICITY": 0.00223844, "INCLINATION": 74.0319, "RA_OF_ASC_NODE": 251.5274, "ARG_OF_PERICENTER": 316.6321, "MEAN_ANOMALY": 194.9451, "EPHEMERIS_TYPE": 0, "CLASSIFICATION_TYPE": "U", "NORAD_CAT_ID": 34064, "ELEMENT_SET_NO": 999, "REV_AT_EPOCH": 88292, "BSTAR": 0.00043700396, "MEAN_MOTION_DOT": 1.422e-05, "MEAN_MOTION_DDOT": 0}, "tle": {"line1": "1 34064U 93036KB  25357.16499021  .00001422  00000+0  43700-3 0  9997", "line2": "2 34064  74.0319 251.5274 0022384 316.6321 194.9451 14.42371122882929"}}, "geometry": {"type": "Point", "coordinates": [-96.55833514479112, 40.31683168294333]}}, {"type": "Feature", "properties": {"norad_id": 34065, "name": "COSMOS 2251 DEB", "group": "cosmos-2251-debris", "lat": -53.35147748704077, "lon": 79.41591033101588, "alt_km": 772.703867567906, "timestamp": "2025-12-24T07:45:06.592454+00:00", "meta": {"OBJECT_NAME": "COSMOS 2251 DEB", "OBJECT_ID": "1993-036KC", "EPOCH": "2025-12-23T22:21:27.293760", "MEAN_MOTION": 14.38073981, "ECCENTRICITY": 0.00168161, "INCLINATION": 74.035, "RA_OF_ASC_NODE": 237.5065, "ARG_OF_PERICENTER": 333.1404, "MEAN_ANOMALY": 37.9227, "EPHEMERIS_TYPE": 0, "CLASSIFICATION_TYPE": "U", "NORAD_CAT_ID": 34065, "ELEMENT_SET_NO": 999, "REV_AT_EPOCH": 88366, "BSTAR": 0.00015083988, "MEAN_MOTION_DOT": 4.31e-06, "MEAN_MOTION_DDOT": 0}, "tle": {"line1": "1 34065U 93036KC  25357.93156590  .00000431  00000+0  15084-3 0  9997", "line2": "2 34065  74.0350 237.5065 0016816 333.1404  37.9227 14.38073981883662"}}, "geometry": {"type": "Point", "coordinates": [79.41591033101588, -53.35147748704077]}}, {"type": "Feature", "properties": {"norad_id": 34070, "name": "COSMOS 2251 DEB", "group": "cosmos-2251-debris", "lat": -45.86601739388543, "lon": 76.30272212633832, "alt_km": 646.4318295184376, "timestamp": "2025-12-24T07:45:06.592464+00:00", "meta": {"OBJECT_NAME": "COSMOS 2251 DEB", "OBJECT_ID": "1993-036KH", "EPOCH": "2025-12-23T07:50:45.112128", "MEAN_MOTION": 14.7736362, "ECCENTRICITY": 0.00179391, "INCLINATION": 74.0018, "RA_OF_ASC_NODE": 95.46, "ARG_OF_PERICENTER": 212.5533, "MEAN_ANOMALY": 203.4994, "EPHEMERIS_TYPE": 0, "CLASSIFICATION_TYPE": "U", "NORAD_CAT_ID": 34070, "ELEMENT_SET_NO": 999, "REV_AT_EPOCH": 88767, "BSTAR": 0.0024969578, "MEAN_MOTION_DOT": 0.00017813, "MEAN_MOTION_DDOT": 0}, "tle": {"line1": "1 34070U 93036KH  25357.32691102  .00017813  00000+0  24970-2 0  9994", "line2": "2 34070  74.0018  95.4600 0017939 212.5533 203.4994 14.77363620887676"}}, "geometry": {"type": "Point", "coordinates": [76.30272212633832, -45.86601739388543]}}, {"type": "Feature", "properties": {"norad_id": 34114, "name": "COSMOS 2251 DEB", "group": "cosmos-2251-debris", "lat": 13.996913551080828, "lon": 25.967856645693484, "alt_km": 671.0398390310029, "timestamp": "2025-12-24T07:45:06.592474+00:00", "meta": {"OBJECT_NAME": "COSMOS 2251 DEB", "OBJECT_ID": "1993-036KK", "EPOCH": "2025-12-23T12:38:25.063008", "MEAN_MOTION": 14.56514355, "ECCENTRICITY": 0.00480583, "INCLINATION": 74.0582, "RA_OF_ASC_NODE": 23.3905, "ARG_OF_PERICENTER": 14.3515, "MEAN_ANOMALY": 146.5714, "EPHEMERIS_TYPE": 0, "CLASSIFICATION_TYPE": "U", "NORAD_CAT_ID": 34114, "ELEMENT_SET_NO": 999, "REV_AT_EPOCH": 87958, "BSTAR": 0.0016805431, "MEAN_MOTION_DOT": 7.574e-05, "MEAN_MOTION_DDOT": 0}, "tle": {"line1": "1 34114U 93036KK  25357.52667897  .00007574  00000+0  16805-2 0  9990", "line2": "2 34114  74.0582  23.3905 0048058  14.3515 146.5714 14.56514355879581"}}, "geometry": {"type": "Point", "coordinates": [25.967856645693484, 13.996913551080828]}}, {"type": "Feature", "properties": {"norad_id": 34115, "name": "COSMOS 2251 DEB", "group": "cosmos-2251-debris", "lat": 9.77203850068102, "lon": -138.06561481900542, "alt_km": 614.0060337782397, "timestamp": "2025-12-24T07:45:06.592484+00:00", "meta": {"OBJECT_NAME": "COSMOS 2251 DEB", "OBJECT_ID": "1993-036KL", "EPOCH": "2025-12-22T08:38:51.353376", "MEAN_MOTION": 14.79607286, "ECCENTRICITY": 0.00289645, "INCLINATION": 74.0053, "RA_OF_ASC_NODE": 222.9719, "ARG_OF_PERICENTER": 43.6291, "MEAN_ANOMALY": 316.7168, "EPHEMERIS_TYPE": 0, "CLASSIFICATION_TYPE": "U", "NORAD_CAT_ID": 34115, "ELEMENT_SET_NO": 999, "REV_AT_EPOCH": 89554, "BSTAR": 0.0009465402, "MEAN_MOTION_DOT": 7.118e-05, "MEAN_MOTION_DDOT": 0}, "tle": {"line1": "1 34115U 93036KL  25356.36031659  .00007118  00000+0  94654-3 0  9996", "line2": "2 34115  74.0053 222.9719 0028964  43.6291 316.7168 14.79607286895544"}}, "geometry": {"type": "Point", "coordinates": [-138.06561481900542, 9.77203850068102]}}, {"type": "Feature", "properties": {"norad_id": 34116, "name": "COSMOS 2251 DEB", "group": "cosmos-2251-debris", "lat": -49.73239959446109, "lon": 141.18119283084897, "alt_km": 719.5129600839164, "timestamp": "2025-12-24T07:45:06.592495+00:00", "meta": {"OBJECT_NAME": "COSMOS 2251 DEB", "OBJECT_ID": "1993-036KM", "EPOCH": "2025-12-23T10:38:38.194368", "MEAN_MOTION": 14.53036158, "ECCENTRICITY": 0.00117847, "INCLINATION": 74.0396, "RA_OF_ASC_NODE": 162.5854, "ARG_OF_PERICENTER": 238.6047, "MEAN_ANOMALY": 150.107, "EPHEMERIS_TYPE": 0, "CLASSIFICATION_TYPE": "U", "NORAD_CAT_ID": 34116, "ELEMENT_SET_NO": 999, "REV_AT_EPOCH": 88642, "BSTAR": 0.0007775515, "MEAN_MOTION_DOT": 3.187e-05, "MEAN_MOTION_DDOT": 0}, "tle": {"line1": "1 34116U 93036KM  25357.44349762  .00003187  00000+0  77755-3 0  9999", "line2": "2 34116  74.0396 162.5854 0011784 238.6047 150.1070 14.53036158886426"}}, "geometry": {"type": "Point", "coordinates": [141.18119283084897, -49.73239959446109]}}]}